OBJECT_NAME,OBJECT_ID,EPOCH,MEAN_MOTION,ECCENTRICITY,INCLINATION,RA_OF_ASC_NODE,ARG_OF_PERICENTER,MEAN_ANOMALY,EPHEMERIS_TYPE,CLASSIFICATION_TYPE,NORAD_CAT_ID,ELEMENT_SET_NO,REV_AT_EPOCH,BSTAR,MEAN_MOTION_DOT,MEAN_MOTION_DDOT
HODOYOSHI-4,2014-033B,2026-06-07T11:39:43.818912,14.88108998,.0023346,97.5457,343.7765,341.8786,18.1596,0,U,40011,999,64736,.20152E-3,.1811E-4,0
DEIMOS-2,2014-033D,2026-06-07T12:52:55.938720,14.93699972,.0002028,97.5835,33.3635,60.6825,299.4598,0,U,40013,999,63628,.1979E-3,.2039E-4,0
HODOYOSHI-3,2014-033F,2026-06-07T00:18:46.013184,14.85368210,.0033572,97.6412,321.4641,30.5084,329.8075,0,U,40015,999,64611,.15522E-3,.1296E-4,0
SPOT 7,2014-034A,2026-06-07T12:35:25.330272,14.60950380,.0001175,98.0627,221.2649,83.8761,276.2573,0,U,40053,999,63572,.11214E-3,.504E-5,0
SKYSAT-B,2014-037D,2026-06-06T15:14:25.785888,14.88000738,.00046959,98.3832,115.9991,324.8850,35.2055,0,U,40072,999,64439,.18296707E-3,.1618E-4,0
WORLDVIEW-3 (WV-3),2014-048A,2026-06-07T11:08:56.967936,14.85006727,.0001718,97.8566,233.4316,40.6091,319.5252,0,U,40115,999,64046,.12607E-3,.1022E-4,0
GAOFEN-2,2014-049A,2026-06-07T12:20:22.030368,14.80887467,.0005873,98.0107,222.7304,266.1577,93.8964,0,U,40118,999,63780,.38214E-4,.242E-5,0
YAOGAN-21,2014-053A,2026-06-07T12:36:23.513760,15.26237003,.0009693,97.1475,199.1774,120.8433,239.3761,0,U,40143,999,65348,.43681E-3,.11264E-3,0
YAOGAN-22,2014-063A,2026-06-07T03:31:36.358176,13.15530751,.0006117,100.7713,309.2540,208.2595,151.8185,0,U,40275,999,55849,.10543E-3,-.7E-7,0
ASNARO,2014-070A,2026-06-07T11:28:18.787872,15.19294362,.0004599,97.3451,234.8564,197.9430,162.1643,0,U,40298,999,64253,.44344E-3,.9298E-4,0
YAOGAN-24,2014-072A,2026-06-07T12:35:51.151776,14.76209873,.0012748,98.1481,295.7819,298.0609,61.9311,0,U,40310,999,62229,.84201E-4,.53E-5,0
CBERS 4,2014-079A,2026-06-07T11:42:46.456416,14.35506610,.0002048,98.3531,215.6236,72.5840,287.5570,0,U,40336,999,60256,.44584E-4,.86E-6,0
YAOGAN-26,2014-088A,2026-06-07T13:28:19.806240,15.46950181,.0006732,97.0647,158.9989,88.7706,271.4315,0,U,40362,999,63621,.15416E-3,.7687E-4,0
SMAP,2015-003A,2026-06-06T21:24:10.382976,14.63357521,.0001257,98.1276,165.1322,92.7632,267.3714,0,U,40376,999,60611,.97298E-4,.456E-5,0
KOMPSAT-3A,2015-014A,2026-06-07T12:24:44.638848,15.53555995,.0055671,97.6889,149.1758,209.6887,150.1203,0,U,40536,999,62031,.35373E-3,.23996E-3,0
SENTINEL-2A,2015-028A,2026-06-07T11:51:56.668896,14.30820912,.0001067,98.5679,233.4835,87.5938,272.5367,0,U,40697,999,57234,.32284E-4,.41E-6,0
GAOFEN-8,2015-030A,2026-06-07T12:10:11.024256,15.45608716,.0007958,97.6914,351.2989,222.9029,137.1599,0,U,40701,999,60995,.56652E-3,.27262E-3,0
CARBONITE 1 (CBNT-1),2015-032D,2026-06-07T12:54:17.345664,14.83560078,.0013832,97.6509,337.0088,332.3495,27.6982,0,U,40718,999,58791,.26207E-3,.2111E-4,0
YAOGAN-27,2015-040A,2026-06-07T12:37:22.455840,13.16069606,.0007463,100.1155,145.3285,234.9211,125.1203,0,U,40878,999,51639,-.28858E-3,-.152E-5,0
GAOFEN-9 01,2015-047A,2026-06-07T13:09:19.726272,14.82866411,.0027633,97.6284,194.6806,168.5913,191.5934,0,U,40894,999,57876,.15546E-3,.1216E-4,0
YAOGAN-28,2015-064A,2026-06-07T11:53:35.182176,15.27293924,.0009785,97.3064,296.9565,218.6566,141.3974,0,U,41026,999,58920,.26203E-3,.6942E-4,0
YAOGAN-29,2015-069A,2026-06-07T12:42:59.108256,14.83078832,.0002987,98.0031,187.1477,69.0165,291.1368,0,U,41038,999,56919,.81758E-4,.611E-5,0
KENT RIDGE 1,2015-077B,2026-06-07T03:27:16.602624,15.23070787,.0008297,14.9809,340.6742,96.6297,263.4969,0,U,41167,999,57956,.15337E-3,.4491E-4,0
GAOFEN-4,2015-083A,2026-06-06T19:06:26.328384,1.00269078,.00043587,0.3301,83.7532,108.8481,94.9007,0,U,41194,999,3842,0,-.321E-5,0
JASON-3,2016-002A,2026-06-07T10:46:54.234048,12.87627813,.000859,66.0390,146.3081,273.1708,86.8328,0,U,41240,999,48599,.75773E-4,-.43E-6,0
SENTINEL-3A,2016-011A,2026-06-07T11:14:39.594048,14.26737394,.0001355,98.6250,225.9913,104.3078,255.8253,0,U,41335,999,53667,.69257E-4,.124E-5,0
ZIYUAN 3-02 (ZY 3-02),2016-033A,2026-06-07T12:31:05.310336,15.21388569,.0011696,97.3832,234.4806,328.1226,31.9301,0,U,41556,999,55651,.25846E-3,.5738E-4,0
CARTOSAT-2C,2016-040A,2026-06-07T12:14:48.835680,15.19244337,.0009624,97.4482,218.6212,162.1324,198.0251,0,U,41599,999,55224,.29725E-3,.6204E-4,0
SKYSAT-C1,2016-040C,2026-06-06T15:56:12.399360,15.36120752,.0004216,96.9565,189.9555,78.4382,281.7336,0,U,41601,999,55625,.30015E-3,.10493E-3,0
LAPAN-A3,2016-040E,2026-06-07T12:44:45.635136,15.33043689,.0011847,97.1490,154.9947,56.9581,303.2798,0,U,41603,999,55333,.11575E-3,.3626E-4,0
GAOFEN-3,2016-049A,2026-06-07T12:14:07.132992,14.42214626,.0001197,98.4014,166.4423,98.0342,262.0983,0,U,41727,999,51725,.50345E-4,.122E-5,0
