HODOYOSHI-4             
1 40011U 14033B   26158.48592383  .00001811  00000+0  20152-3 0  9994
2 40011  97.5457 343.7765 0023346 341.8786  18.1596 14.88108998647367
DEIMOS-2                
1 40013U 14033D   26158.53675855  .00002039  00000+0  19790-3 0  9997
2 40013  97.5835  33.3635 0002028  60.6825 299.4598 14.93699972636289
HODOYOSHI-3             
1 40015U 14033F   26158.01303256  .00001296  00000+0  15522-3 0  9998
2 40015  97.6412 321.4641 0033572  30.5084 329.8075 14.85368210646112
SPOT 7                  
1 40053U 14034A   26158.52459873  .00000504  00000+0  11214-3 0  9999
2 40053  98.0627 221.2649 0001175  83.8761 276.2573 14.60950380635720
SKYSAT-B                
1 40072U 14037D   26157.63502067  .00001618  00000+0  18297-3 0  9993
2 40072  98.3832 115.9991 0004695 324.8850  35.2055 14.88000738644392
WORLDVIEW-3 (WV-3)      
1 40115U 14048A   26158.46454824  .00001022  00000+0  12607-3 0  9990
2 40115  97.8566 233.4316 0001718  40.6091 319.5252 14.85006727640460
GAOFEN-2                
1 40118U 14049A   26158.51414387  .00000242  00000+0  38214-4 0  9996
2 40118  98.0107 222.7304 0005873 266.1577  93.8964 14.80887467637804
YAOGAN-21               
1 40143U 14053A   26158.52527215  .00011264  00000+0  43681-3 0  9994
2 40143  97.1475 199.1774 0009693 120.8433 239.3761 15.26237003653489
YAOGAN-22               
1 40275U 14063A   26158.14694859 -.00000007  00000+0  10543-3 0  9993
2 40275 100.7713 309.2540 0006117 208.2595 151.8185 13.15530751558499
ASNARO                  
1 40298U 14070A   26158.47799523  .00009298  00000+0  44344-3 0  9992
2 40298  97.3451 234.8564 0004599 197.9430 162.1643 15.19294362642531
YAOGAN-24               
1 40310U 14072A   26158.52489759  .00000530  00000+0  84201-4 0  9999
2 40310  98.1481 295.7819 0012748 298.0609  61.9311 14.76209873622297
CBERS 4                 
1 40336U 14079A   26158.48803769  .00000086  00000+0  44584-4 0  9996
2 40336  98.3531 215.6236 0002048  72.5840 287.5570 14.35506610602566
YAOGAN-26               
1 40362U 14088A   26158.56134035  .00007687  00000+0  15416-3 0  9992
2 40362  97.0647 158.9989 0006732  88.7706 271.4315 15.46950181636214
SMAP                    
1 40376U 15003A   26157.89178684  .00000456  00000+0  97298-4 0  9994
2 40376  98.1276 165.1322 0001257  92.7632 267.3714 14.63357521606110
KOMPSAT-3A              
1 40536U 15014A   26158.51718332  .00023996  00000+0  35373-3 0  9993
2 40536  97.6889 149.1758 0055671 209.6887 150.1203 15.53555995620312
SENTINEL-2A             
1 40697U 15028A   26158.49440589  .00000041  00000+0  32284-4 0  9994
2 40697  98.5679 233.4835 0001067  87.5938 272.5367 14.30820912572347
GAOFEN-8                
1 40701U 15030A   26158.50707204  .00027262  00000+0  56652-3 0  9993
2 40701  97.6914 351.2989 0007958 222.9029 137.1599 15.45608716609959
CARBONITE 1 (CBNT-1)    
1 40718U 15032D   26158.53770076  .00002111  00000+0  26207-3 0  9992
2 40718  97.6509 337.0088 0013832 332.3495  27.6982 14.83560078587919
YAOGAN-27               
1 40878U 15040A   26158.52595435 -.00000152  00000+0 -28858-3 0  9990
2 40878 100.1155 145.3285 0007463 234.9211 125.1203 13.16069606516398
GAOFEN-9 01             
1 40894U 15047A   26158.54814498  .00001216  00000+0  15546-3 0  9990
2 40894  97.6284 194.6806 0027633 168.5913 191.5934 14.82866411578767
YAOGAN-28               
1 41026U 15064A   26158.49554609  .00006942  00000+0  26203-3 0  9999
2 41026  97.3064 296.9565 0009785 218.6566 141.3974 15.27293924589206
YAOGAN-29               
1 41038U 15069A   26158.52985079  .00000611  00000+0  81758-4 0  9994
2 41038  98.0031 187.1477 0002987  69.0165 291.1368 14.83078832569191
KENT RIDGE 1            
1 41167U 15077B   26158.14394216  .00004491  00000+0  15337-3 0  9990
2 41167  14.9809 340.6742 0008297  96.6297 263.4969 15.23070787579564
GAOFEN-4                
1 41194U 15083A   26157.79613806 -.00000321  00000+0  00000+0 0  9992
2 41194   0.3301  83.7532 0004358 108.8481  94.9007  1.00269078 38425
JASON-3                 
1 41240U 16002A   26158.44923882 -.00000043  00000+0  75773-4 0  9992
2 41240  66.0390 146.3081 0008590 273.1708  86.8328 12.87627813485995
SENTINEL-3A             
1 41335U 16011A   26158.46851382  .00000124  00000+0  69257-4 0  9993
2 41335  98.6250 225.9913 0001355 104.3078 255.8253 14.26737394536679
ZIYUAN 3-02 (ZY 3-02)   
1 41556U 16033A   26158.52158924  .00005738  00000+0  25846-3 0  9992
2 41556  97.3832 234.4806 0011696 328.1226  31.9301 15.21388569556516
CARTOSAT-2C             
1 41599U 16040A   26158.51028745  .00006204  00000+0  29725-3 0  9992
2 41599  97.4482 218.6212 0009624 162.1324 198.0251 15.19244337552249
SKYSAT-C1               
1 41601U 16040C   26157.66403240  .00010493  00000+0  30015-3 0  9997
2 41601  96.9565 189.9555 0004216  78.4382 281.7336 15.36120752556256
LAPAN-A3                
1 41603U 16040E   26158.53108374  .00003626  00000+0  11575-3 0  9996
2 41603  97.1490 154.9947 0011847  56.9581 303.2798 15.33043689553333
GAOFEN-3                
1 41727U 16049A   26158.50980478  .00000122  00000+0  50345-4 0  9999
2 41727  98.4014 166.4423 0001197  98.0342 262.0983 14.42214626517251
